{"fetched_at":"2026-07-06T18:35:31.656Z","source":"https://celestrak.org/NORAD/elements/gp.php?NAME=FIREFLY&FORMAT=JSON","constellation":"pixxel","records":[{"OBJECT_NAME":"FIREFLY-1","OBJECT_ID":"2025-009CW","EPOCH":"2026-07-06T04:44:48.626592","CLASSIFICATION_TYPE":"U","MEAN_MOTION":14.92726266,"ECCENTRICITY":0.00022138,"INCLINATION":97.7064,"RA_OF_ASC_NODE":264.9344,"ARG_OF_PERICENTER":270.8469,"MEAN_ANOMALY":89.2497,"EPHEMERIS_TYPE":0,"NORAD_CAT_ID":62701,"ELEMENT_SET_NO":999,"REV_AT_EPOCH":8015,"BSTAR":0.00013308986,"MEAN_MOTION_DOT":0.00001318,"MEAN_MOTION_DDOT":0},{"OBJECT_NAME":"FIREFLY-2","OBJECT_ID":"2025-009CZ","EPOCH":"2026-07-06T04:12:58.002912","CLASSIFICATION_TYPE":"U","MEAN_MOTION":14.92722294,"ECCENTRICITY":0.00071927,"INCLINATION":97.7021,"RA_OF_ASC_NODE":264.6875,"ARG_OF_PERICENTER":31.4564,"MEAN_ANOMALY":328.7084,"EPHEMERIS_TYPE":0,"NORAD_CAT_ID":62704,"ELEMENT_SET_NO":999,"REV_AT_EPOCH":8015,"BSTAR":0.00016223869,"MEAN_MOTION_DOT":0.00001619,"MEAN_MOTION_DDOT":0},{"OBJECT_NAME":"FIREFLY-3","OBJECT_ID":"2025-009DF","EPOCH":"2026-07-06T05:18:31.901184","CLASSIFICATION_TYPE":"U","MEAN_MOTION":14.92785814,"ECCENTRICITY":0.00049019,"INCLINATION":97.7055,"RA_OF_ASC_NODE":264.9873,"ARG_OF_PERICENTER":93.6023,"MEAN_ANOMALY":266.5757,"EPHEMERIS_TYPE":0,"NORAD_CAT_ID":62710,"ELEMENT_SET_NO":999,"REV_AT_EPOCH":8017,"BSTAR":0.00017280721,"MEAN_MOTION_DOT":0.00001731,"MEAN_MOTION_DDOT":0}]}
